COSMOS 2433 (720)       
1 32275U 07052A   24215.20624954 -.00000096  00000+0  00000+0 0  9993
2 32275  65.9180 338.8545 0003222 210.7434 149.2377  2.13104161130529
COSMOS 2432 (719)       
1 32276U 07052B   24215.30090331 -.00000096  00000+0  00000+0 0  9991
2 32276  65.9329 338.9661 0007884 324.1410  54.5548  2.13103228130517
COSMOS 2434 (721)       
1 32393U 07065A   24215.36431424  .00000068  00000+0  00000+0 0  9991
2 32393  64.3227 215.0093 0000307 306.0969  67.5428  2.13101376129209
COSMOS 2436 (723)       
1 32395U 07065C   24215.28723368  .00000069  00000+0  00000+0 0  9996
2 32395  64.3301 215.0768 0016116 351.9039  97.7628  2.13102815129155
COSMOS 2456 (730)       
1 36111U 09070A   24215.43202337 -.00000019  00000+0  00000+0 0  9995
2 36111  64.6318  94.3699 0003088 332.6210 246.9742  2.13099161113852
COSMOS 2457 (733)       
1 36112U 09070B   24216.14910404 -.00000012  00000+0  00000+0 0  9999
2 36112  64.6167  94.2028 0004548 143.3151  39.8094  2.13101357113910
COSMOS 2460 (732)       
1 36402U 10007C   24215.48069492 -.00000096  00000+0  00000+0 0  9993
2 36402  65.7731 337.5033 0001459 147.9266 234.8989  2.13106313112168
COSMOS 2476 (744)       
1 37867U 11064A   24215.44451787 -.00000019  00000+0  00000+0 0  9996
2 37867  64.9042  96.0218 0021775 235.2410 266.1447  2.13101688 99191
COSMOS 2477 (745)       
1 37868U 11064B   24215.27063231 -.00000021  00000+0  00000+0 0  9994
2 37868  64.9107  96.1004 0018976 236.0700 310.2432  2.13103185 99186
COSMOS 2475 (743)       
1 37869U 11064C   24215.31646507 -.00000020  00000+0  00000+0 0  9992
2 37869  64.9183  96.1143 0023702 252.1641 287.5167  2.13102008 99196
COSMOS 2485 (747)       
1 39155U 13019A   24215.20216952 -.00000021  00000+0  00000+0 0  9990
2 39155  65.0613  96.6239 0022138 231.0194 128.8530  2.13101940 87707
COSMOS 2492 (754)       
1 39620U 14012A   24215.62666053 -.00000095  00000+0  00000+0 0  9999
2 39620  65.6546 337.0687 0010886 319.1699  40.7504  2.13103194 80674
COSMOS 2500 (755)       
1 40001U 14032A   24214.86690677 -.00000097  00000+0  00000+0 0  9992
2 40001  65.5920 336.8958 0007727 193.1232 166.8582  2.13105971 78875
COSMOS 2501 (702K)      
1 40315U 14075A   24215.58983815  .00000062  00000+0  00000+0 0  9997
2 40315  63.6229 214.0622 0021055 211.6339 148.2599  2.13101458 75283
COSMOS 2514 (751)       
1 41330U 16008A   24215.10316565 -.00000096  00000+0  00000+0 0  9991
2 41330  65.3864 336.3857 0011447 203.7157 156.2339  2.13102608 66040
COSMOS 2522 (752)       
1 42939U 17055A   24215.41260478  .00000067  00000+0  00000+0 0  9992
2 42939  64.0839 215.1857 0010402 241.8008 118.1179  2.13101946 53405
COSMOS 2527 (756)       
1 43508U 18053A   24215.37192559 -.00000019  00000+0  00000+0 0  9991
2 43508  65.2213  96.7799 0007188 226.9586 133.0519  2.13102344 47700
COSMOS 2529 (757)       
1 43687U 18086A   24215.47065855  .00000067  00000+0  00000+0 0  9996
2 43687  64.2995 215.7088 0011826 259.5302 100.3612  2.13102051 44714
COSMOS 2534 (758)       
1 44299U 19030A   24215.35453878  .00000069  00000+0  00000+0 0  9991
2 44299  64.3727 215.6706 0013657 278.3974 126.6535  2.13102164 40358
COSMOS 2544 (759)       
1 44850U 19088A   24215.31599516 -.00000020  00000+0  00000+0 0  9991
2 44850  65.2078  96.6178 0012068 255.2391 104.6978  2.13102161 36148
COSMOS 2545 (760)       
1 45358U 20018A   24215.51280678 -.00000096  00000+0  00000+0 0  9991
2 45358  64.7257 336.3449 0009373 234.7562 125.1592  2.13102600 34097
COSMOS 2547 (705K)      
1 46805U 20075A   24214.76127916  .00000078  00000+0  00000+0 0  9992
2 46805  64.6015 215.3456 0009019 242.0297 117.9065  2.13102956 29322
COSMOS 2557 (706K)      
1 52984U 22075A   24215.39586742 -.00000097  00000+0  00000+0 0  9997
2 52984  64.6537 338.4747 0011324 275.3250  84.5469  2.13102290 16140
COSMOS 2559 (707K)      
1 54031U 22130A   24214.86964261 -.00000098  00000+0  00000+0 0  9992
2 54031  64.6258 338.6091 0006875 214.5311 145.4249  2.13101587 14102
COSMOS 2564 (761)       
1 54377U 22161A   24215.52967644  .00000067  00000+0  00000+0 0  9996
2 54377  64.7428 215.4328 0011594 225.7555 134.1735  2.13102134 13066
COSMOS 2569 (703K)      
1 57517U 23114A   24215.07748689 -.00000022  00000+0  00000+0 0  9992
2 57517  64.9352  95.7585 0009872 297.8678  62.1025  2.13103801  7684
